[{"OBJECT_NAME":"STARLINK-34263","OBJECT_ID":"2025-112U","EPOCH":"2026-03-09T17:34:55.064064","MEAN_MOTION":15.05646504,"ECCENTRICITY":0.00022208,"INCLINATION":97.6018,"RA_OF_ASC_NODE":121.5486,"ARG_OF_PERICENTER":125.0748,"MEAN_ANOMALY":235.0687,"EPHEMERIS_TYPE":0,"CLASSIFICATION_TYPE":"U","NORAD_CAT_ID":64164,"ELEMENT_SET_NO":999,"REV_AT_EPOCH":4331,"BSTAR":0.00022642075,"MEAN_MOTION_DOT":3.208e-5,"MEAN_MOTION_DDOT":0},{"OBJECT_NAME":"COSMOS 886 DEB","OBJECT_ID":"1976-126AL","EPOCH":"2026-03-09T21:13:20.080416","MEAN_MOTION":13.32330466,"ECCENTRICITY":0.08525222,"INCLINATION":65.8124,"RA_OF_ASC_NODE":304.1373,"ARG_OF_PERICENTER":74.0234,"MEAN_ANOMALY":295.2959,"EPHEMERIS_TYPE":0,"CLASSIFICATION_TYPE":"U","NORAD_CAT_ID":9824,"ELEMENT_SET_NO":999,"REV_AT_EPOCH":34144,"BSTAR":0.00076028605,"MEAN_MOTION_DOT":3.095e-5,"MEAN_MOTION_DDOT":0}]
